#dP2019  4  5  0  0  0.00000000      96 __u+U IGS08 FIT  IAC
## 2047 432000.00000000   900.00000000 58578 0.0000000000000
+   96   C01C02C03C04C05C06C07C08C09C10C11C12C13C14C16E01E02
+        E03E04E05E07E08E09E11E12E13E14E15E18E19E21E24E25E26
+        E27E30E31E36G01G02G03G04G05G06G07G08G09G10G11G12G13
+        G14G15G16G17G18G19G20G21G22G23G24G25G26G27G28G29G30
+        G31G32J01J02J03R01R02R03R04R05R07R08R09R10R11R13R14
+        R15R16R17R18R19R20R21R22R23R24R26  0  0  0  0  0  0
++        12 12 12 12 12  8  8  9  8  8  7  7  8  7  8  4  4
++         4  4  4  4  4  4  4  4  4  4  5  4  4  4  4  4  4
++         4  4  4  5  3  3  3  4  3  3  3  3  3  3  3  3  3
++         3  3  3  3  3  3  3  3  3  3  3  3  3  3  3  3  3
++         3  3  9  9  9  5  5  5  5  5  5  5  7  5  5  6  5
++         5  6  5  5  5  6  5  5  5  6  8  0  0  0  0  0  0
%c M  cc GPS ccc cccc cccc cccc cccc ccccc ccccc ccccc ccccc
%c cc cc ccc ccc cccc cccc cccc cccc ccccc ccccc ccccc ccccc
%f  1.2500000  1.025000000  0.00000000000  0.000000000000000
%f  0.0000000  0.000000000  0.00000000000  0.000000000000000
%i    0    0    0    0      0      0      0      0         0
%i    0    0    0    0      0      0      0      0         0
/* INFORMATION & ANALYSIS CENTER (IAC)            FINAL DATA
/* S/V CLOCKS ARE ALIGNED TO GPS & GLONASS TIME RESPECTIVELY
/* USING THE BROADCAST EPHEMERIS                            
/* PCV:IGS14_2038 OL/AL:FES2004  NONE     YN ORB:CoN CLK:CoN
*  2019 04 05 23 45  0.00000000
PC01 -32344.595290  27059.274670   -386.429554    422.510473
PC02   4390.295678  41917.411255   -223.382033   -421.875956
PC03 -14718.753886  39515.952957   -575.811138     74.950416
PC04 -39645.793762  14353.964506   -668.861419     44.232920
PC05  21957.433423  36009.535448     15.863192   -203.895962
PC06 -20583.954212  22328.671084  29416.922467    637.525211
PC07 -18743.992112  37950.491382   2759.559116   -283.797614
PC08  -6163.417047  26068.981557 -32390.334585    141.196389
PC09  -3457.354046  24516.609855  34317.534509    663.146177
PC10  -8935.574250  40252.190824  -9615.735367   -638.065690
PC11  26484.063654   7269.796665   4844.952765    -87.050578
PC12   9846.679297  17528.277868 -19255.404125    552.909477
PC13   5735.052536  34761.761909 -22938.515432   -635.711005
PC14  15825.972768   7009.121873  21965.167572    702.743115
PC16 -15246.740057  23199.683940  31702.652401   -498.572692
PE01  -1769.494107  28521.655757  -7721.613123   -577.581552
PE02   1750.840483 -28519.187932   7746.971546     54.650969
PE03   1070.534200 -17780.334171 -23635.364426   -151.995355
PE04  19502.663555   9316.549475  20232.891235   -255.413892
PE05  21190.555010 -15891.361894 -13209.881714     79.121665
PE07 -28813.386196   4728.323139  -4873.763129   -163.128004
PE08 -19629.608626  -8969.411938 -20256.941679   6376.983709
PE09  28757.167418  -4985.032932   4902.976954   6478.262990
PE11  22802.271894   4688.249191  18298.253694   5709.890341
PE12  21965.650405  19844.392318    853.139190   6458.774076
PE13 -22824.811967  -4760.089132 -18218.186956    385.204837
PE14  -9538.533891 -14557.332797  16007.212575   -518.213682
PE15 -22174.793627 -19563.991917  -1156.720345    914.790651
PE18   7572.769287  20838.790898 -23656.595104   -617.649809
PE19  -3307.922682  17982.586582  23283.665338     -7.266507
PE21 -13503.504893  23745.856337  11392.856521   -527.646524
PE24  17321.251876  -5315.299260 -23427.561626   6147.644319
PE25  13532.910172 -23705.191987 -11451.203648   1843.432701
PE26 -10349.574633  12894.899856 -24543.249208   4715.485213
PE27 -17201.983078   4927.261885  23575.099368    495.830068
PE30 -10923.147677 -16484.653049  22014.301098   4974.550576
PE31  10797.993481  16738.332526 -21895.658652    864.588082
PE36  10118.756406 -12873.707854  24667.993204    727.740734
PG01  17065.796659   4628.438867  19744.336792   -195.657259
PG02 -14440.729574 -22202.619845  -2330.600635   -181.822347
PG03  18734.656941  -5275.019086  18000.720942    187.904940
PG04  15234.773406 -11438.300236 -18498.087295    144.835829
PG05  -8989.096056 -13765.343116 -20940.882902      1.157658
PG06  -5830.896844 -24579.977612   8189.884864    237.877274
PG07  11687.834878 -10339.286362 -21185.543482      0.822551
PG08  25133.359962   5974.825163  -6578.957976   -138.849721
PG09  20305.411845  -9157.686762 -14519.037997    433.644260
PG10  -9853.125521  23512.905784   7140.123169     80.080138
PG11  22406.259711   5665.252700  12345.821628   -631.954875
PG12 -18376.078444   3427.447481  18582.205037    253.824879
PG13 -19548.533846 -12798.508405 -12781.021686    -68.943131
PG14   4959.178392  15712.294039  21181.422317    -85.608005
PG15 -26084.977806  -3373.999535  -5236.419472   -319.894629
PG16   8524.160192  12619.352902 -21890.889913    -30.558121
PG17   5287.940439 -14207.496375  22208.814612     34.606102
PG18  18226.790690  13672.344178  13278.003867     41.498916
PG19  -4005.430158 -15055.582989  21199.097210   -334.020233
PG20 -14210.547827  22110.859615  -3338.574473    523.733770
PG21  -7235.763210  15673.168170 -19423.600809   -218.203833
PG22  16451.574696   2875.761248  20879.877912   -678.285640
PG23  26415.426528  -1390.190127  -3855.246747   -191.321777
PG24 -18665.291124  -7835.788125  17203.642207    -64.375016
PG25 -18922.104076  15130.650465  10369.260363   -742.169664
PG26    766.524060  20659.961853 -16591.185810    168.406325
PG27  17997.721636  11890.662803 -15793.435199   -101.920695
PG28  12226.584822 -22659.013369   7318.501822    767.196071
PG29 -23897.526950   4019.311049 -10904.193577    232.341252
PG30   3910.575382 -20615.201818 -16157.695839    -81.316546
PG31   5953.922219  24738.568336   6759.552905     47.080863
PG32  -1324.405718  15259.227966  21748.878854   -146.233913
PJ01 -27159.928525  32258.538759   6190.283772   -330.758879
PJ02 -26231.960177  26068.180436  24905.376619      1.042590
PJ03 -31657.817325  16663.054073 -17681.259245     -0.337953
PR01  11193.654126 -15532.367201 -16841.960655     41.890680
PR02  -8724.244091  -7531.107367 -22709.346362    362.293989
PR03 -21259.202671   4138.460257 -13396.592484     -6.726487
PR04 -21152.999694  13616.761886   4188.214521    301.354521
PR05  -9333.438637  14876.659487  18503.780781     25.550930
PR07  21495.899201  -4422.618674  13070.720730    -17.768975
PR08  21510.653218 -13293.451559  -3330.175819     18.355459
PR09   7092.547177  18624.030710 -15953.316371     62.918375
PR10  10538.235377   3262.185470 -23029.812263     46.987546
PR11   8984.418851 -16267.302717 -17444.031407    -62.031327
PR13  -6539.099902 -19699.341823  14802.871241    -22.118198
PR14 -10822.208970  -2991.464864  22908.522059     37.634621
PR15  -9112.172779  15517.876784  18090.135194    101.131045
PR16  -1715.504857  25242.491942   2681.226688     10.388051
PR17 -22197.447378  -9391.773232  -8381.238041    217.954742
PR18 -14347.196810   2188.233003 -20941.373039    -11.396566
PR19    929.390425  12537.966491 -22192.017521    -23.916704
PR20  17197.754615  16391.309835  -9349.301439   -374.038997
PR21  22081.934428   9036.031994   9003.405580    -40.737660
PR22  12443.160925  -3830.136203  21969.977478    -13.062967
PR23  -6048.862208 -14538.960555  20059.799911    219.904556
PR24 -18418.662850 -15820.551027   7760.175030   -179.020883
PR26  15889.711639  16221.791955 -11587.572104      5.451657
EOF
